start=new Date('2022-01-29T00:00:00.000Z').valueOf();
sats=[{"EPHEMERIS_TYPE":"0","RCS_SIZE":"LARGE","COUNTRY_CODE":"US","TLE_LINE1":"1 44238U 19029D   22028.73461684  .00016057  00000-0  74330-3 0  9994","MEAN_ANOMALY":"243.8207","RA_OF_ASC_NODE":"37.7525","LAUNCH_DATE":"2019-05-24","SEMIMAJOR_AXIS":"6883.129","BSTAR":"0.00074330000000","PERIOD":"94.719","MEAN_MOTION_DOT":"0.00016057","ECCENTRICITY":"0.00010260","MEAN_MOTION_DDOT":"0.0000000000000","INCLINATION":"52.9931","SITE":"AFETR","CENTER_NAME":"EARTH","OBJECT_NAME":"STARLINK-24","CLASSIFICATION_TYPE":"U","PERIAPSIS":"504.288","EPOCH":"2022-01-28T17:37:50.894976","GP_ID":"194841904","MEAN_MOTION":"15.20280970","ELEMENT_SET_NO":"999","OBJECT_ID":"2019-029D","APOAPSIS":"505.701","NORAD_CAT_ID":"44238","REF_FRAME":"TEME","DECAY_DATE":null,"REV_AT_EPOCH":"14689","TIME_SYSTEM":"UTC","OBJECT_TYPE":"PAYLOAD","TLE_LINE2":"2 44238  52.9931  37.7525 0001026 116.2892 243.8207 15.20280970146897","MEAN_ELEMENT_THEORY":"SGP4","ARG_OF_PERICENTER":"116.2892","FILE":"3286235"},{"OBJECT_ID":"2019-029Q","MEAN_MOTION":"15.27777569","ELEMENT_SET_NO":"999","FILE":"3286235","ARG_OF_PERICENTER":"74.8380","MEAN_ELEMENT_THEORY":"SGP4","TLE_LINE2":"2 44249  52.9789   1.9836 0007718  74.8380 285.3471 15.27777569148105","OBJECT_TYPE":"PAYLOAD","TIME_SYSTEM":"UTC","DECAY_DATE":null,"REV_AT_EPOCH":"14810","NORAD_CAT_ID":"44249","REF_FRAME":"TEME","APOAPSIS":"487.755","RA_OF_ASC_NODE":"1.9836","SEMIMAJOR_AXIS":"6860.595","LAUNCH_DATE":"2019-05-24","BSTAR":"0.00109160000000","TLE_LINE1":"1 44249U 19029Q   22028.92637860  .00029807  00000-0  10916-2 0  9994","MEAN_ANOMALY":"285.3471","COUNTRY_CODE":"US","RCS_SIZE":"LARGE","EPHEMERIS_TYPE":"0","GP_ID":"194842154","CLASSIFICATION_TYPE":"U","OBJECT_NAME":"STARLINK-61","PERIAPSIS":"477.165","EPOCH":"2022-01-28T22:13:59.111040","CENTER_NAME":"EARTH","SITE":"AFETR","MEAN_MOTION_DDOT":"0.0000000000000","INCLINATION":"52.9789","MEAN_MOTION_DOT":"0.00029807","ECCENTRICITY":"0.00077180","PERIOD":"94.255"},{"EPHEMERIS_TYPE":"0","RCS_SIZE":"LARGE","COUNTRY_CODE":"US","MEAN_ANOMALY":"108.5228","TLE_LINE1":"1 44252U 19029T   22028.31758902  .00016735  00000-0  71670-3 0  9993","LAUNCH_DATE":"2019-05-24","BSTAR":"0.00071670000000","SEMIMAJOR_AXIS":"6875.186","RA_OF_ASC_NODE":"38.0088","PERIOD":"94.555","MEAN_MOTION_DOT":"0.00016735","ECCENTRICITY":"0.00010810","INCLINATION":"52.9970","MEAN_MOTION_DDOT":"0.0000000000000","CENTER_NAME":"EARTH","SITE":"AFETR","PERIAPSIS":"496.308","EPOCH":"2022-01-28T07:37:19.691328","OBJECT_NAME":"STARLINK-71","CLASSIFICATION_TYPE":"U","GP_ID":"194818002","ELEMENT_SET_NO":"999","MEAN_MOTION":"15.22916456","OBJECT_ID":"2019-029T","APOAPSIS":"497.794","REF_FRAME":"TEME","NORAD_CAT_ID":"44252","REV_AT_EPOCH":"14851","DECAY_DATE":null,"TIME_SYSTEM":"UTC","OBJECT_TYPE":"PAYLOAD","MEAN_ELEMENT_THEORY":"SGP4","TLE_LINE2":"2 44252  52.9970  38.0088 0001081 251.5650 108.5228 15.22916456148518","FILE":"3286028","ARG_OF_PERICENTER":"251.5650"},{"EPOCH":"2022-01-28T17:39:18.256608","PERIAPSIS":"434.801","CLASSIFICATION_TYPE":"U","OBJECT_NAME":"STARLINK-80","GP_ID":"194842657","SITE":"AFETR","CENTER_NAME":"EARTH","INCLINATION":"53.0172","MEAN_MOTION_DDOT":"0.0000000000000","PERIOD":"93.303","MEAN_MOTION_DOT":"0.00039474","ECCENTRICITY":"0.00020580","LAUNCH_DATE":"2019-05-24","BSTAR":"0.00087586000000","SEMIMAJOR_AXIS":"6814.338","RA_OF_ASC_NODE":"299.1276","MEAN_ANOMALY":"173.7430","TLE_LINE1":"1 44282U 19029AZ  22028.73562797  .00039474  00000-0  87586-3 0  9995","RCS_SIZE":"LARGE","COUNTRY_CODE":"US","EPHEMERIS_TYPE":"0","MEAN_ELEMENT_THEORY":"SGP4","TLE_LINE2":"2 44282  53.0172 299.1276 0002058 186.3549 173.7430 15.43360020148458","FILE":"3286235","ARG_OF_PERICENTER":"186.3549","TIME_SYSTEM":"UTC","OBJECT_TYPE":"PAYLOAD","REF_FRAME":"TEME","NORAD_CAT_ID":"44282","REV_AT_EPOCH":"14845","DECAY_DATE":null,"APOAPSIS":"437.605","OBJECT_ID":"2019-029AZ","ELEMENT_SET_NO":"999","MEAN_MOTION":"15.43360020"},{"MEAN_ELEMENT_THEORY":"SGP4","TLE_LINE2":"2 44713  53.0529  85.1515 0001323  82.1847 277.9292 15.06395088122502","ARG_OF_PERICENTER":"82.1847","FILE":"3286235","TIME_SYSTEM":"UTC","OBJECT_TYPE":"PAYLOAD","REF_FRAME":"TEME","NORAD_CAT_ID":"44713","REV_AT_EPOCH":"12250","DECAY_DATE":null,"APOAPSIS":"548.145","OBJECT_ID":"2019-074A","ELEMENT_SET_NO":"999","MEAN_MOTION":"15.06395088","PERIAPSIS":"546.312","EPOCH":"2022-01-28T15:03:22.064544","OBJECT_NAME":"STARLINK-1007","CLASSIFICATION_TYPE":"U","GP_ID":"194842446","CENTER_NAME":"EARTH","SITE":"AFETR","INCLINATION":"53.0529","MEAN_MOTION_DDOT":"0.0000000000000","PERIOD":"95.592","MEAN_MOTION_DOT":"-0.00000907","ECCENTRICITY":"0.00013230","LAUNCH_DATE":"2019-11-11","SEMIMAJOR_AXIS":"6925.364","BSTAR":"-0.00004202000000","RA_OF_ASC_NODE":"85.1515","MEAN_ANOMALY":"277.9292","TLE_LINE1":"1 44713U 19074A   22028.62733871 -.00000907  00000-0 -42020-4 0  9991","RCS_SIZE":"LARGE","COUNTRY_CODE":"US","EPHEMERIS_TYPE":"0"},{"EPHEMERIS_TYPE":"0","RCS_SIZE":"LARGE","COUNTRY_CODE":"US","MEAN_ANOMALY":"285.1940","TLE_LINE1":"1 44714U 19074B   22028.53982031 -.00001040  00000-0 -50976-4 0  9994","SEMIMAJOR_AXIS":"6925.364","LAUNCH_DATE":"2019-11-11","BSTAR":"-0.00005097600000","RA_OF_ASC_NODE":"85.5494","PERIOD":"95.592","ECCENTRICITY":"0.00013310","MEAN_MOTION_DOT":"-0.00001040","INCLINATION":"53.0548","MEAN_MOTION_DDOT":"0.0000000000000","CENTER_NAME":"EARTH","SITE":"AFETR","PERIAPSIS":"546.307","EPOCH":"2022-01-28T12:57:20.474784","OBJECT_NAME":"STARLINK-1008","CLASSIFICATION_TYPE":"U","GP_ID":"194843196","ELEMENT_SET_NO":"999","MEAN_MOTION":"15.06395043","OBJECT_ID":"2019-074B","APOAPSIS":"548.151","REF_FRAME":"TEME","NORAD_CAT_ID":"44714","REV_AT_EPOCH":"12249","DECAY_DATE":null,"TIME_SYSTEM":"UTC","OBJECT_TYPE":"PAYLOAD","TLE_LINE2":"2 44714  53.0548  85.5494 0001331  74.9196 285.1940 15.06395043122499","MEAN_ELEMENT_THEORY":"SGP4","FILE":"3286235","ARG_OF_PERICENTER":"74.9196"},{"SITE":"AFETR","CENTER_NAME":"EARTH","OBJECT_NAME":"STARLINK-1009","CLASSIFICATION_TYPE":"U","PERIAPSIS":"546.305","EPOCH":"2022-01-28T12:41:24.567648","GP_ID":"194841944","PERIOD":"95.592","MEAN_MOTION_DOT":"-0.00001319","ECCENTRICITY":"0.00013080","MEAN_MOTION_DDOT":"0.0000000000000","INCLINATION":"53.0545","TLE_LINE1":"1 44715U 19074C   22028.52875657 -.00001319  00000-0 -69669-4 0  9997","MEAN_ANOMALY":"269.3010","RA_OF_ASC_NODE":"85.5931","LAUNCH_DATE":"2019-11-11","BSTAR":"-0.00006966900000","SEMIMAJOR_AXIS":"6925.346","EPHEMERIS_TYPE":"0","RCS_SIZE":"LARGE","COUNTRY_CODE":"US","TIME_SYSTEM":"UTC","OBJECT_TYPE":"PAYLOAD","MEAN_ELEMENT_THEORY":"SGP4","TLE_LINE2":"2 44715  53.0545  85.5931 0001308  90.8129 269.3010 15.06400948122482","ARG_OF_PERICENTER":"90.8129","FILE":"3286235","APOAPSIS":"548.116","NORAD_CAT_ID":"44715","REF_FRAME":"TEME","DECAY_DATE":null,"REV_AT_EPOCH":"12248","MEAN_MOTION":"15.06400948","ELEMENT_SET_NO":"999","OBJECT_ID":"2019-074C"},{"OBJECT_ID":"2019-074D","ELEMENT_SET_NO":"999","MEAN_MOTION":"15.06393561","REF_FRAME":"TEME","NORAD_CAT_ID":"44716","REV_AT_EPOCH":"12248","DECAY_DATE":null,"APOAPSIS":"548.200","MEAN_ELEMENT_THEORY":"SGP4","TLE_LINE2":"2 44716  53.0559  85.2207 0001396  77.0791 283.0353 15.06393561122485","FILE":"3286235","ARG_OF_PERICENTER":"77.0791","TIME_SYSTEM":"UTC","OBJECT_TYPE":"PAYLOAD","RCS_SIZE":"LARGE","COUNTRY_CODE":"US","EPHEMERIS_TYPE":"0","BSTAR":"-0.00006892800000","LAUNCH_DATE":"2019-11-11","SEMIMAJOR_AXIS":"6925.368","RA_OF_ASC_NODE":"85.2207","MEAN_ANOMALY":"283.0353","TLE_LINE1":"1 44716U 19074D   22028.61354290 -.00001308  00000-0 -68928-4 0  9998","INCLINATION":"53.0559","MEAN_MOTION_DDOT":"0.0000000000000","PERIOD":"95.593","MEAN_MOTION_DOT":"-0.00001308","ECCENTRICITY":"0.00013960","PERIAPSIS":"546.267","EPOCH":"2022-01-28T14:43:30.106560","OBJECT_NAME":"STARLINK-1010","CLASSIFICATION_TYPE":"U","GP_ID":"194842194","SITE":"AFETR","CENTER_NAME":"EARTH"},{"PERIAPSIS":"546.209","EPOCH":"2022-01-28T16:16:23.361024","CLASSIFICATION_TYPE":"U","OBJECT_NAME":"STARLINK-1011","GP_ID":"194842946","SITE":"AFETR","CENTER_NAME":"EARTH","INCLINATION":"53.0533","MEAN_MOTION_DDOT":"0.0000000000000","PERIOD":"95.592","ECCENTRICITY":"0.00014410","MEAN_MOTION_DOT":"0.00002962","LAUNCH_DATE":"2019-11-11","SEMIMAJOR_AXIS":"6925.342","BSTAR":"0.00021766000000","RA_OF_ASC_NODE":"104.9113","MEAN_ANOMALY":"286.3887","TLE_LINE1":"1 44717U 19074E   22028.67804816  .00002962  00000-0  21766-3 0  9992","RCS_SIZE":"LARGE","COUNTRY_CODE":"US","EPHEMERIS_TYPE":"0","MEAN_ELEMENT_THEORY":"SGP4","TLE_LINE2":"2 44717  53.0533 104.9113 0001441  73.7260 286.3887 15.06402210122231","ARG_OF_PERICENTER":"73.7260","FILE":"3286235","TIME_SYSTEM":"UTC","OBJECT_TYPE":"PAYLOAD","REF_FRAME":"TEME","NORAD_CAT_ID":"44717","REV_AT_EPOCH":"12223","DECAY_DATE":null,"APOAPSIS":"548.205","OBJECT_ID":"2019-074E","ELEMENT_SET_NO":"999","MEAN_MOTION":"15.06402210"},{"ELEMENT_SET_NO":"999","MEAN_MOTION":"15.06407673","OBJECT_ID":"2019-074F","TIME_SYSTEM":"UTC","OBJECT_TYPE":"PAYLOAD","MEAN_ELEMENT_THEORY":"SGP4","TLE_LINE2":"2 44718  53.0541  85.9402 0001509  79.9168 280.1991 15.06407673122472","ARG_OF_PERICENTER":"79.9168","FILE":"3285972","APOAPSIS":"548.235","REF_FRAME":"TEME","NORAD_CAT_ID":"44718","REV_AT_EPOCH":"12247","DECAY_DATE":null,"MEAN_ANOMALY":"280.1991","TLE_LINE1":"1 44718U 19074F   22028.45134919  .00001485  00000-0  11853-3 0  9994","LAUNCH_DATE":"2019-11-11","SEMIMAJOR_AXIS":"6925.325","BSTAR":"0.00011853000000","RA_OF_ASC_NODE":"85.9402","EPHEMERIS_TYPE":"0","RCS_SIZE":"LARGE","COUNTRY_CODE":"US","SITE":"AFETR","CENTER_NAME":"EARTH","PERIAPSIS":"546.145","EPOCH":"2022-01-28T10:49:56.570016","OBJECT_NAME":"STARLINK-1012","CLASSIFICATION_TYPE":"U","GP_ID":"194812651","PERIOD":"95.592","ECCENTRICITY":"0.00015090","MEAN_MOTION_DOT":"0.00001485","INCLINATION":"53.0541","MEAN_MOTION_DDOT":"0.0000000000000"}];
